start=new Date('2022-05-24T00:00:00.000Z').valueOf();
sats=[{"MEAN_MOTION":"15.06329011","OBJECT_TYPE":"PAYLOAD","REF_FRAME":"TEME","ARG_OF_PERICENTER":"66.1535","PERIAPSIS":"546.092","ECCENTRICITY":"0.00019340","OBJECT_NAME":"STARLINK-1100","RCS_SIZE":"LARGE","PERIOD":"95.597","TLE_LINE2":"2 44943  53.0560  70.0045 0001934  66.1535 293.9656 15.06329011131175","MEAN_MOTION_DOT":"0.00016614","FILE":"3460386","EPHEMERIS_TYPE":"0","MEAN_ELEMENT_THEORY":"SGP4","ELEMENT_SET_NO":"999","REV_AT_EPOCH":"13117","DECAY_DATE":null,"COUNTRY_CODE":"US","MEAN_MOTION_DDOT":"0.0000000000000","OBJECT_ID":"2020-001AF","GP_ID":"204327710","TLE_LINE1":"1 44943U 20001AF  22143.38081251  .00016614  00000-0  11338-2 0  9993","NORAD_CAT_ID":"44943","INCLINATION":"53.0560","TIME_SYSTEM":"UTC","APOAPSIS":"548.771","SITE":"AFETR","EPOCH":"2022-05-23T09:08:22.200864","BSTAR":"0.00113380000000","LAUNCH_DATE":"2020-01-07","RA_OF_ASC_NODE":"70.0045","CENTER_NAME":"EARTH","MEAN_ANOMALY":"293.9656","CLASSIFICATION_TYPE":"U","SEMIMAJOR_AXIS":"6925.566"},{"MEAN_MOTION":"15.06389885","OBJECT_TYPE":"PAYLOAD","PERIAPSIS":"546.159","REF_FRAME":"TEME","ARG_OF_PERICENTER":"49.0974","ECCENTRICITY":"0.00015670","RCS_SIZE":"LARGE","OBJECT_NAME":"STARLINK-1108","PERIOD":"95.593","ELEMENT_SET_NO":"999","FILE":"3460386","TLE_LINE2":"2 44944  53.0571  69.4890 0001567  49.0974 311.0151 15.06389885131196","MEAN_MOTION_DOT":"0.00000807","EPHEMERIS_TYPE":"0","MEAN_ELEMENT_THEORY":"SGP4","OBJECT_ID":"2020-001AG","MEAN_MOTION_DDOT":"0.0000000000000","REV_AT_EPOCH":"13119","COUNTRY_CODE":"US","DECAY_DATE":null,"GP_ID":"204327460","TLE_LINE1":"1 44944U 20001AG  22143.49505610  .00000807  00000-0  73056-4 0  9990","NORAD_CAT_ID":"44944","APOAPSIS":"548.330","INCLINATION":"53.0571","TIME_SYSTEM":"UTC","SITE":"AFETR","EPOCH":"2022-05-23T11:52:52.847040","BSTAR":"0.00007305600000","MEAN_ANOMALY":"311.0151","CLASSIFICATION_TYPE":"U","RA_OF_ASC_NODE":"69.4890","LAUNCH_DATE":"2020-01-07","CENTER_NAME":"EARTH","SEMIMAJOR_AXIS":"6925.380"},{"OBJECT_TYPE":"PAYLOAD","MEAN_MOTION":"15.06394868","ECCENTRICITY":"0.00020740","ARG_OF_PERICENTER":"48.9928","REF_FRAME":"TEME","PERIAPSIS":"545.793","PERIOD":"95.592","OBJECT_NAME":"STARLINK-1109","RCS_SIZE":"LARGE","DECAY_DATE":null,"COUNTRY_CODE":"US","REV_AT_EPOCH":"13119","OBJECT_ID":"2020-001AH","MEAN_MOTION_DDOT":"0.0000000000000","MEAN_ELEMENT_THEORY":"SGP4","EPHEMERIS_TYPE":"0","TLE_LINE2":"2 44945  53.0570  69.3488 0002074  48.9928 311.1240 15.06394868131196","FILE":"3460386","MEAN_MOTION_DOT":"0.00000048","ELEMENT_SET_NO":"999","NORAD_CAT_ID":"44945","TLE_LINE1":"1 44945U 20001AH  22143.52453720  .00000048  00000-0  22119-4 0  9990","GP_ID":"204326208","EPOCH":"2022-05-23T12:35:20.014080","SITE":"AFETR","TIME_SYSTEM":"UTC","INCLINATION":"53.0570","APOAPSIS":"548.666","CENTER_NAME":"EARTH","RA_OF_ASC_NODE":"69.3488","LAUNCH_DATE":"2020-01-07","CLASSIFICATION_TYPE":"U","MEAN_ANOMALY":"311.1240","BSTAR":"0.00002211900000","SEMIMAJOR_AXIS":"6925.364"},{"TLE_LINE2":"2 44946  53.0064  59.1414 0002584  98.2266 261.9018 15.13458803131306","FILE":"3460386","MEAN_MOTION_DOT":"0.00038462","EPHEMERIS_TYPE":"0","MEAN_ELEMENT_THEORY":"SGP4","ELEMENT_SET_NO":"999","REV_AT_EPOCH":"13130","DECAY_DATE":null,"COUNTRY_CODE":"US","MEAN_MOTION_DDOT":"0.0000000000000","OBJECT_ID":"2020-001AJ","RCS_SIZE":"LARGE","OBJECT_NAME":"STARLINK-1110","PERIOD":"95.146","REF_FRAME":"TEME","ARG_OF_PERICENTER":"98.2266","PERIAPSIS":"523.880","ECCENTRICITY":"0.00025840","MEAN_MOTION":"15.13458803","OBJECT_TYPE":"PAYLOAD","SEMIMAJOR_AXIS":"6903.798","BSTAR":"0.00213120000000","LAUNCH_DATE":"2020-01-07","RA_OF_ASC_NODE":"59.1414","CENTER_NAME":"EARTH","MEAN_ANOMALY":"261.9018","CLASSIFICATION_TYPE":"U","INCLINATION":"53.0064","TIME_SYSTEM":"UTC","APOAPSIS":"527.447","SITE":"AFETR","EPOCH":"2022-05-23T11:09:20.618208","GP_ID":"204326458","TLE_LINE1":"1 44946U 20001AJ  22143.46482197  .00038462  00000-0  21312-2 0  9997","NORAD_CAT_ID":"44946"},{"SEMIMAJOR_AXIS":"6925.407","LAUNCH_DATE":"2020-01-07","RA_OF_ASC_NODE":"70.7338","CENTER_NAME":"EARTH","MEAN_ANOMALY":"316.1785","CLASSIFICATION_TYPE":"U","BSTAR":"-0.00010239000000","SITE":"AFETR","EPOCH":"2022-05-23T05:09:29.940768","INCLINATION":"53.0560","TIME_SYSTEM":"UTC","APOAPSIS":"548.547","NORAD_CAT_ID":"44947","GP_ID":"204327210","TLE_LINE1":"1 44947U 20001AK  22143.21492987 -.00001806  00000-0 -10239-3 0  9990","REV_AT_EPOCH":"13115","COUNTRY_CODE":"US","DECAY_DATE":null,"OBJECT_ID":"2020-001AK","MEAN_MOTION_DDOT":"0.0000000000000","FILE":"3460386","TLE_LINE2":"2 44947  53.0560  70.7338 0001840  43.9350 316.1785 15.06380834131154","MEAN_MOTION_DOT":"-0.00001806","EPHEMERIS_TYPE":"0","MEAN_ELEMENT_THEORY":"SGP4","ELEMENT_SET_NO":"999","PERIOD":"95.593","RCS_SIZE":"LARGE","OBJECT_NAME":"STARLINK-1116","ECCENTRICITY":"0.00018400","REF_FRAME":"TEME","ARG_OF_PERICENTER":"43.9350","PERIAPSIS":"545.998","OBJECT_TYPE":"PAYLOAD","MEAN_MOTION":"15.06380834"},{"PERIAPSIS":"546.126","REF_FRAME":"TEME","ARG_OF_PERICENTER":"56.1037","ECCENTRICITY":"0.00016190","MEAN_MOTION":"15.06388927","OBJECT_TYPE":"PAYLOAD","ELEMENT_SET_NO":"999","TLE_LINE2":"2 44949  53.0553  69.4369 0001619  56.1037 304.0106 15.06388927131197","FILE":"3460386","MEAN_MOTION_DOT":"0.00001944","EPHEMERIS_TYPE":"0","MEAN_ELEMENT_THEORY":"SGP4","MEAN_MOTION_DDOT":"0.0000000000000","OBJECT_ID":"2020-001AM","REV_AT_EPOCH":"13119","DECAY_DATE":null,"COUNTRY_CODE":"US","RCS_SIZE":"LARGE","OBJECT_NAME":"STARLINK-1122","PERIOD":"95.593","APOAPSIS":"548.369","INCLINATION":"53.0553","TIME_SYSTEM":"UTC","SITE":"AFETR","EPOCH":"2022-05-23T12:08:48.431904","GP_ID":"204327961","TLE_LINE1":"1 44949U 20001AM  22143.50611611  .00001944  00000-0  14942-3 0  9997","NORAD_CAT_ID":"44949","SEMIMAJOR_AXIS":"6925.382","BSTAR":"0.00014942000000","MEAN_ANOMALY":"304.0106","CLASSIFICATION_TYPE":"U","LAUNCH_DATE":"2020-01-07","RA_OF_ASC_NODE":"69.4369","CENTER_NAME":"EARTH"},{"BSTAR":"0.00189020000000","MEAN_ANOMALY":"259.2503","CLASSIFICATION_TYPE":"U","LAUNCH_DATE":"2020-01-07","RA_OF_ASC_NODE":"68.6981","CENTER_NAME":"EARTH","SEMIMAJOR_AXIS":"6917.048","TLE_LINE1":"1 44950U 20001AN  22143.52666458  .00030152  00000-0  18902-2 0  9992","GP_ID":"204326709","NORAD_CAT_ID":"44950","APOAPSIS":"540.495","INCLINATION":"53.0528","TIME_SYSTEM":"UTC","SITE":"AFETR","EPOCH":"2022-05-23T12:38:23.819712","RCS_SIZE":"LARGE","OBJECT_NAME":"STARLINK-1125","PERIOD":"95.420","ELEMENT_SET_NO":"999","FILE":"3460386","TLE_LINE2":"2 44950  53.0528  68.6981 0002287 100.8745 259.2503 15.09112328131204","MEAN_MOTION_DOT":"0.00030152","EPHEMERIS_TYPE":"0","MEAN_ELEMENT_THEORY":"SGP4","OBJECT_ID":"2020-001AN","MEAN_MOTION_DDOT":"0.0000000000000","REV_AT_EPOCH":"13120","DECAY_DATE":null,"COUNTRY_CODE":"US","MEAN_MOTION":"15.09112328","OBJECT_TYPE":"PAYLOAD","PERIAPSIS":"537.331","REF_FRAME":"TEME","ARG_OF_PERICENTER":"100.8745","ECCENTRICITY":"0.00022870"},{"MEAN_MOTION":"15.13108495","OBJECT_TYPE":"PAYLOAD","PERIAPSIS":"524.902","REF_FRAME":"TEME","ARG_OF_PERICENTER":"98.2636","ECCENTRICITY":"0.00026460","OBJECT_NAME":"STARLINK-1126","RCS_SIZE":"LARGE","PERIOD":"95.168","ELEMENT_SET_NO":"999","FILE":"3460386","TLE_LINE2":"2 44951  53.0045  59.8275 0002646  98.2636 261.8655 15.13108495132589","MEAN_MOTION_DOT":"0.00038572","MEAN_ELEMENT_THEORY":"SGP4","EPHEMERIS_TYPE":"0","OBJECT_ID":"2020-001AP","MEAN_MOTION_DDOT":"0.0000000000000","REV_AT_EPOCH":"13258","COUNTRY_CODE":"US","DECAY_DATE":null,"TLE_LINE1":"1 44951U 20001AP  22143.48971482  .00038572  00000-0  21582-2 0  9996","GP_ID":"204326959","NORAD_CAT_ID":"44951","APOAPSIS":"528.556","INCLINATION":"53.0045","TIME_SYSTEM":"UTC","SITE":"AFETR","EPOCH":"2022-05-23T11:45:11.360448","BSTAR":"0.00215820000000","MEAN_ANOMALY":"261.8655","CLASSIFICATION_TYPE":"U","RA_OF_ASC_NODE":"59.8275","LAUNCH_DATE":"2020-01-07","CENTER_NAME":"EARTH","SEMIMAJOR_AXIS":"6904.864"},{"FILE":"3460386","TLE_LINE2":"2 44952  53.0553  69.5228 0002163  43.1811 316.9347 15.06402836131192","MEAN_MOTION_DOT":"0.00003930","MEAN_ELEMENT_THEORY":"SGP4","EPHEMERIS_TYPE":"0","ELEMENT_SET_NO":"999","REV_AT_EPOCH":"13119","DECAY_DATE":null,"COUNTRY_CODE":"US","MEAN_MOTION_DDOT":"0.0000000000000","OBJECT_ID":"2020-001AQ","RCS_SIZE":"LARGE","OBJECT_NAME":"STARLINK-1117","PERIOD":"95.592","REF_FRAME":"TEME","ARG_OF_PERICENTER":"43.1811","PERIAPSIS":"545.707","ECCENTRICITY":"0.00021630","MEAN_MOTION":"15.06402836","OBJECT_TYPE":"PAYLOAD","SEMIMAJOR_AXIS":"6925.340","BSTAR":"0.00028257000000","RA_OF_ASC_NODE":"69.5228","LAUNCH_DATE":"2020-01-07","CENTER_NAME":"EARTH","MEAN_ANOMALY":"316.9347","CLASSIFICATION_TYPE":"U","INCLINATION":"53.0553","TIME_SYSTEM":"UTC","APOAPSIS":"548.703","SITE":"AFETR","EPOCH":"2022-05-23T11:42:15.002496","TLE_LINE1":"1 44952U 20001AQ  22143.48767364  .00003930  00000-0  28257-3 0  9996","GP_ID":"204327711","NORAD_CAT_ID":"44952"},{"SEMIMAJOR_AXIS":"6925.385","LAUNCH_DATE":"2020-01-07","RA_OF_ASC_NODE":"69.4299","CENTER_NAME":"EARTH","CLASSIFICATION_TYPE":"U","MEAN_ANOMALY":"302.8092","BSTAR":"-0.00004464600000","SITE":"AFETR","EPOCH":"2022-05-23T12:07:27.038784","INCLINATION":"53.0563","TIME_SYSTEM":"UTC","APOAPSIS":"548.309","NORAD_CAT_ID":"44953","GP_ID":"204327461","TLE_LINE1":"1 44953U 20001AR  22143.50517406 -.00000946  00000-0 -44646-4 0  9997","REV_AT_EPOCH":"13248","DECAY_DATE":null,"COUNTRY_CODE":"US","MEAN_MOTION_DDOT":"0.0000000000000","OBJECT_ID":"2020-001AR","TLE_LINE2":"2 44953  53.0563  69.4299 0001529  57.3045 302.8092 15.06388097132488","FILE":"3460386","MEAN_MOTION_DOT":"-0.00000946","EPHEMERIS_TYPE":"0","MEAN_ELEMENT_THEORY":"SGP4","ELEMENT_SET_NO":"999","PERIOD":"95.593","RCS_SIZE":"LARGE","OBJECT_NAME":"STARLINK-1124","ECCENTRICITY":"0.00015290","REF_FRAME":"TEME","ARG_OF_PERICENTER":"57.3045","PERIAPSIS":"546.191","OBJECT_TYPE":"PAYLOAD","MEAN_MOTION":"15.06388097"}];
